383P/Christensen,e,12.3192,207.8539,133.7434,3.548419,0.1474524,0.59862130,272.7781,11/18.0/2024,2000,g 18.0,4.0
# From MPEC 2024-VB7
384P/Kowalski,e,7.2831,354.1966,37.7141,2.898572,0.1997230,0.61633731,11.9549,11/18.0/2024,2000,g 19.5,4.0
# From MPEC 2021-F20
385P/Hill,e,16.8249,357.0519,44.4359,4.288825,0.1109677,0.40204195,209.5938,11/18.0/2024,2000,g 13.0,4.0
# From MPEC 2021-L04
386P/PANSTARRS,e,15.2440,134.9157,353.0864,4.049744,0.1209380,0.41730394,187.5641,11/18.0/2024,2000,g 14.5,4.0
# From MPEC 2021-J28
387P/Boattini,e,8.9379,259.2389,162.8422,4.797202,0.0938042,0.73709965,177.9816,11/18.0/2024,2000,g 15.0,4.0
# From MPEC 2021-S45
388P/Gibbs,e,23.8853,37.0233,42.3409,5.240558,0.0821557,0.61937934,159.5247,11/18.0/2024,2000,g 13.0,4.0
# From MPEC 2022-OB6
389P/Siding Spring,e,160.0835,218.8706,249.3592,5.631469,0.0737516,0.70540484,131.5626,11/18.0/2024,2000,g 16.0,4.0
# From MPEC 2024-EF7
390P/Gibbs,e,18.5302,152.2213,232.5224,5.816410,0.0702622,0.70698235,119.5331,11/18.0/2024,2000,g 12.0,4.0
# From MPEC 2021-F20
391P/Kowalski,e,21.2583,124.7806,187.0856,4.689865,0.0970429,0.11854573,236.6303,11/18.0/2024,2000,g  8.0,4.0
# From MPEC 2021-J28
392P/LINEAR,e,4.9301,24.8287,71.9232,6.141400,0.0647594,0.68390423,109.4740,11/18.0/2024,2000,g 14.5,4.0
# From MPEC 2023-T65
393P/Spacewatch-Hill,e,16.7860,36.3968,329.2183,4.798779,0.0937579,0.11949110,172.9352,11/18.0/2024,2000,g 11.0,4.0
# From MPEC 2020-KB7
394P/PANSTARRS,e,8.5288,98.1166,54.4132,4.327592,0.1094800,0.36806943,198.6972,11/18.0/2024,2000,g 16.0,2.4
# From MPEC 2024-PC5
395P/Catalina-NEAT,e,3.5754,221.0080,100.4608,7.199807,0.0510179,0.41284477,51.0660,11/18.0/2024,2000,g 10.0,4.0
# From MPEC 2020-KB7
396P/,e,5.4411,136.6148,8.3003,6.799207,0.0555926,0.41672345,106.1043,11/18.0/2024,2000,g 12.0,4.0
# From MPEC 2022-OB6
397P/Lemmon,e,10.9226,8.2188,14.5790,3.831693,0.1314068,0.40483407,211.7971,11/18.0/2024,2000,g 12.0,4.0
# From MPEC 2021-L04
398P/Boattini,e,11.0253,320.1390,127.5290,3.125017,0.1784126,0.58371866,253.5052,11/18.0/2024,2000,g 15.5,4.0
# From MPEC 2023-XP6
399P/PANSTARRS,e,13.3192,207.1258,214.4226,3.793287,0.1334076,0.44741716,170.0269,11/18.0/2024,2000,g 14.0,4.0
# From MPEC 2024-TD8
400P/PANSTARRS,e,10.9259,176.3638,238.9215,3.561920,0.1466148,0.40970674,201.6970,11/18.0/2024,2000,g 15.5,2.8
# From MPEC 2022-K19
401P/McNaught,e,12.8007,359.9190,309.3914,5.777539,0.0709724,0.57848627,128.5041,11/18.0/2024,2000,g 12.5,4.0
# From MPEC 2024-LE0
402P/LINEAR,e,30.8301,123.0559,326.9218,7.037294,0.0527953,0.44003916,56.3985,11/18.0/2024,2000,g  9.0,4.0
# From MPEC 2021-J28
403P/Catalina,e,12.3308,277.5657,163.9350,5.431456,0.0778627,0.50432194,118.5345,11/18.0/2024,2000,g 12.0,4.0
# From MPEC 2024-VJ2
404P/Bressi,e,9.8043,260.0421,169.1874,4.721871,0.0960579,0.12480825,36.6439,11/18.0/2024,2000,g 10.0,4.0
# From MPEC 2021-L04
405P/Lemmon,e,9.3778,112.1916,3.2993,3.604315,0.1440356,0.69006040,205.0807,11/18.0/2024,2000,g 17.5,4.0
# From MPEC 2021-F20
406P/Gibbs,e,1.2103,352.4015,11.5575,3.578843,0.1455761,0.54129236,221.8983,11/18.0/2024,2000,g 17.0,4.0
# From MPEC 2022-YN2
407P/PANSTARRS-Fuls,e,4.8765,80.2396,93.3127,3.489157,0.1512249,0.37627186,267.0239,11/18.0/2024,2000,g 14.0,4.0
# From MPEC 2024-N80
408P/Novichonok-Gerke,e,19.3547,189.4478,226.6396,4.744611,0.0953681,0.26859496,73.8196,11/18.0/2024,2000,g 11.0,4.0
# From MPEC 2022-ED3
409P/LONEOS-Hill,e,17.1416,143.6432,15.0453,6.033162,0.0665099,0.71003727,92.4282,11/18.0/2024,2000,g 14.0,4.0
# From MPEC 2022-M21
410P/NEAT-LINEAR,e,9.3883,139.9506,313.2116,6.650780,0.0574639,0.51174192,71.3972,11/18.0/2024,2000,g 12.5,4.0
# From MPEC 2021-J28
411P/Christensen,e,12.3901,77.6541,46.5494,5.811241,0.0703559,0.58163109,97.9908,11/18.0/2024,2000,g 13.5,4.0
# From MPEC 2021-F20
412P/WISE,e,8.9305,0.8454,155.8779,3.110902,0.1796282,0.47899350,259.6369,11/18.0/2024,2000,g 17.0,4.0
# From MPEC 2022-OB6
413P/Larson,e,15.9643,39.2345,186.5264,3.734768,0.1365553,0.41840643,166.6285,11/18.0/2024,2000,g 14.0,4.0
# From MPEC 2024-JU4
414P/STEREO,e,23.4078,257.8188,210.6972,2.792502,0.2112097,0.81222187,294.0315,11/18.0/2024,2000,g 19.0,4.0
# From MPEC 2022-J42
415P/Tenagra,e,31.8032,160.2621,345.8650,4.108890,0.1183361,0.19531684,162.5092,11/18.0/2024,2000,g 12.0,4.0
# From MPEC 2021-L04
416P/Scotti,e,3.3626,355.7470,134.4250,4.007045,0.1228762,0.45525836,168.4434,11/18.0/2024,2000,g 15.5,4.0
# From MPEC 2021-W31
417P/NEOWISE,e,9.3397,114.7053,124.4003,3.316355,0.1631972,0.56847015,213.8277,11/18.0/2024,2000,g 16.5,4.0
# From MPEC 2022-TA0
418P/LINEAR,e,5.7804,277.6335,307.3541,5.092088,0.0857749,0.66369386,96.8009,11/18.0/2024,2000,g 13.0,4.0
# From MPEC 2023-UR6
419P/PANSTARRS,e,2.7983,40.4206,187.8980,3.530876,0.1485527,0.27477265,166.2274,11/18.0/2024,2000,g 12.5,4.0
# From MPEC 2024-L77
420P/Hill,e,14.4883,173.6775,156.4594,5.491466,0.0765899,0.49522451,69.9892,11/18.0/2024,2000,g 11.5,4.0
# From MPEC 2021-W31
421P/McNaught,e,10.0757,55.3313,259.8855,5.075786,0.0861885,0.67447845,120.1156,11/18.0/2024,2000,g 14.0,4.0
# From MPEC 2024-N80
422P/Christensen,e,39.5812,36.0174,304.7956,6.277549,0.0626641,0.50600319,65.2725,11/18.0/2024,2000,g 11.0,4.0
# From MPEC 2023-FK0
423P/Lemmon,e,8.3445,33.3009,80.7073,6.179186,0.0641663,0.12268359,73.8585,11/18.0/2024,2000,g  8.0,4.0
# From MPEC 2022-CN4
424P/LaSagra,e,8.6827,51.1982,312.5628,4.420317,0.1060533,0.69067104,118.1141,11/18.0/2024,2000,g 17.0,4.0
# From MPEC 2024-C04
425P/Kowalski,e,16.4183,210.0801,200.9530,6.349134,0.0616073,0.54393724,71.0890,11/18.0/2024,2000,g 12.0,4.0
# From MPEC 2024-N80
426P/PANSTARRS,e,17.7839,280.3961,118.4408,3.186260,0.1732935,0.16117682,75.2751,11/18.0/2024,2000,g 13.5,4.0
# From MPEC 2023-J29
428P/Gibbs,e,8.5039,299.3182,36.9071,3.487827,0.1513114,0.51842500,194.3269,11/18.0/2024,2000,g 15.0,4.0
# From MPEC 2024-EF7
429P/LINEAR-Hill,e,7.5150,322.0318,75.7053,3.555151,0.1470337,0.49111816,154.4851,11/18.0/2024,2000,g 15.5,4.0
# From MPEC 2022-L66
430P/Scotti,e,4.4753,54.6597,94.4290,3.103750,0.1802495,0.50005503,194.9585,11/18.0/2024,2000,g 16.5,4.0
# From MPEC 2024-EF7
431P/Scotti,e,22.3864,202.8427,199.9840,3.476421,0.1520567,0.47757480,153.3333,11/18.0/2024,2000,g 14.0,4.0
# From MPEC 2021-U31
432P/PANSTARRS,e,10.0684,239.1284,105.3131,3.037645,0.1861652,0.24105223,219.0009,11/18.0/2024,2000,g 17.0,4.0
# From MPEC 2024-D33
434P/Tenagra,e,6.3360,288.9215,128.3878,4.134764,0.1172271,0.27456981,131.0478,11/18.0/2024,2000,g 13.0,4.0
# From MPEC 2021-W31
435P/PANSTARRS,e,18.8744,98.5272,244.2390,3.020981,0.1877077,0.31775845,227.1783,11/18.0/2024,2000,g 17.0,4.0
# From MPEC 2022-X67
436P/Garradd,e,20.1995,87.1580,282.7448,5.936212,0.0681459,0.66935394,73.3119,11/18.0/2024,2000,g 14.5,4.0
# From MPEC 2023-B57
437P/Lemmon-PANSTARRS,e,3.6891,245.8395,206.9792,4.567252,0.1009768,0.25511092,82.9167,11/18.0/2024,2000,g 13.0,4.0
# From MPEC 2021-W47
438P/Christensen,e,8.2807,260.1090,59.0217,3.851646,0.1303871,0.41431145,220.3312,11/18.0/2024,2000,g 14.5,4.0
# From MPEC 2022-C56
439P/LINEAR,e,7.1132,56.4356,342.0987,3.491315,0.1510847,0.46934055,178.2094,11/18.0/2024,2000,g 13.5,4.0
# From MPEC 2024-N80
440P/Kobayashi,e,12.3463,328.8228,183.2878,8.577020,0.0392373,0.76068598,37.8195,11/18.0/2024,2000,g 15.5,4.0
# From MPEC 2022-X67
441P/PANSTARRS,e,2.5745,143.5956,178.8721,4.132999,0.1173022,0.19484207,325.3483,11/18.0/2024,2000,g 13.5,4.0
# From MPEC 2024-N80
442P/McNaught,e,6.0574,31.9821,310.6915,4.959020,0.0892504,0.53258952,73.4465,11/18.0/2024,2000,g 13.5,4.0
# From MPEC 2024-TD8
443P/PANSTARRS-Christensen,e,19.8877,108.9380,145.1047,4.125135,0.1176378,0.28312131,90.6013,11/18.0/2024,2000,g 13.5,4.0
# From MPEC 2023-VM5
444P/WISE-PANSTARRS,e,22.6642,88.2509,172.6933,3.458953,0.1532100,0.56420171,132.4967,11/18.0/2024,2000,g 17.0,4.0
# From MPEC 2024-BE0
445P/Lemmon-PANSTARRS,e,1.0886,126.5902,213.2949,4.048405,0.1209980,0.41399138,99.7595,11/18.0/2024,2000,g 15.0,4.0
# From MPEC 2024-NE4
446P/McNaught,e,16.6193,336.3635,344.6529,4.562725,0.1011271,0.64669378,91.4105,11/18.0/2024,2000,g 16.5,4.0
# From MPEC 2022-YB4
447P/Sheppard-Tholen,e,7.4398,302.6358,97.6451,5.629145,0.0737973,0.17776653,60.7425,11/18.0/2024,2000,g 12.0,4.0
# From MPEC 2024-PC5
448P/PANSTARRS,e,12.1477,161.7575,218.7844,3.635660,0.1421770,0.41844469,114.2507,11/18.0/2024,2000,g 16.0,4.0
# From MPEC 2024-DC6
449P/Leonard,e,15.4720,242.5240,176.7482,3.599944,0.1442980,0.47986059,209.8063,11/18.0/2024,2000,g 16.0,4.0
# From MPEC 2024-VJ2
450P/LONEOS,e,10.5900,124.5856,22.1396,7.962750,0.0438641,0.31346314,325.1286,11/18.0/2024,2000,g  6.5,4.0
# From MPEC 2023-HD1
451P/Christensen,e,26.4818,300.8783,186.7548,6.347083,0.0616372,0.55909759,44.4542,11/18.0/2024,2000,g 15.5,4.0
# From MPEC 2024-NE4
452P/Sheppard-Jewitt,e,6.4215,123.6737,37.0623,7.306811,0.0499013,0.42824124,28.5592,11/18.0/2024,2000,g  9.0,4.0
# From MPEC 2023-RF3
453P/WISE-Lemmon,e,27.0655,42.8960,70.8701,5.465197,0.0771428,0.58305504,48.2734,11/18.0/2024,2000,g 14.0,4.0
# From MPEC 2023-CD7
454P/PANSTARRS,e,19.8123,54.5831,20.1469,4.210097,0.1140948,0.36157370,96.4597,11/18.0/2024,2000,g 14.0,4.0
# From MPEC 2022-Y14
455P/PANSTARRS,e,14.1366,146.1839,237.5209,3.152864,0.1760541,0.30467541,111.2443,11/18.0/2024,2000,g 17.0,4.0
# From MPEC 2023-N01
456P/PANSTARRS,e,16.9691,243.1566,233.0687,3.172965,0.1743838,0.11688908,334.1489,11/18.0/2024,2000,g 13.5,4.0
# From MPEC 2024-P23
457P/Lemmon-PANSTARRS,e,5.2253,175.9659,104.3777,2.645655,0.2290363,0.11851024,20.5466,11/18.0/2024,2000,g 15.5,4.0
# From MPEC 2023-HD1
458P/Jahn,e,13.6239,1.5762,104.8797,3.858529,0.1300383,0.31724093,97.4564,11/18.0/2024,2000,g 17.3,4.0
# From MPEC 2024-N80
459P/Catalina,e,7.1739,256.9880,205.2111,3.240128,0.1689899,0.57782314,107.3867,11/18.0/2024,2000,g 15.5,4.0
# From MPEC 2023-G14
460P/PANSTARRS,e,18.8976,180.5152,351.9393,3.027178,0.1871316,0.66408926,234.1027,11/18.0/2024,2000,g 21.0,4.0
# From MPEC 2024-GJ3
